STARLINK-36320          
1 68090U 26042X   26078.25002315 -.01831871  00000+0 -10448-1 0  9996
2 68090  53.1590 146.6719 0001425 115.0501  22.6325 15.81126991  3575
STARLINK-36324          
1 68091U 26042Y   26078.25002315 -.01160785  00000+0 -81816-2 0  9994
2 68091  53.1592 146.6976 0000866  78.3659  46.3561 15.76111103  3574
STARLINK-36896          
1 68092U 26042Z   26078.25002315  .00048998  00000+0  25086-3 0  9991
2 68092  53.1590 146.6626 0001431 100.7705  41.1809 15.80830838  3583
STARLINK-36251          
1 68093U 26042AA  26078.25002315  .00038618  00000+0  19849-3 0  9990
2 68093  53.1587 146.6445 0001165  87.9794  62.5336 15.80854562  3578
STARLINK-36787          
1 68094U 26042AB  26078.25002315 -.01207916  00000+0 -85413-2 0  9992
2 68094  53.1592 146.6436 0000715  70.7127  79.7352 15.76152630  3575
STARLINK-36790          
1 68095U 26042AC  26078.25002315  .00029743  00000+0  15374-3 0  9990
2 68095  53.1587 146.6536 0001147  80.2226  66.0043 15.80869039  3576
STARLINK-36328          
1 68096U 26042AD  26078.25002315  .00030638  00000+0  15832-3 0  9995
2 68096  53.1590 146.6179 0001302  87.8888  75.4344 15.80858875  3578
STARLINK-36853          
1 68097U 26042AE  26078.25002315  .00101830  00000+0  51457-3 0  9992
2 68097  53.1590 146.6357 0001492 112.9378  41.8419 15.80822773  3580
GLOBAL-34               
1 68098U 26043A   26077.93050719  .00009586  00000+0  31505-3 0  9996
2 68098  42.0218  22.1556 0005690 345.5564  14.5110 15.31604838  1982
STARLINK-37022          
1 68101U 26044A   26078.25002315 -.01785699  00000+0 -96458-2 0  9993
2 68101  97.2844  38.8396 0001600 125.5968 232.2196 15.83294917  2930
STARLINK-37046          
1 68102U 26044B   26078.25002315 -.01929325  00000+0 -10165-1 0  9990
2 68102  97.2842  38.8406 0001129 108.2598 253.3781 15.83541860  2930
STARLINK-37018          
1 68103U 26044C   26078.25002315 -.01935925  00000+0 -10166-1 0  9995
2 68103  97.2839  38.8422 0001338 101.5857 264.1644 15.83617855  2881
