CCSDS_OMM_VERS = 2.0
CREATION_DATE  = 
ORIGINATOR     = 

OBJECT_NAME    = STARLINK-36320
OBJECT_ID      = 2026-042X
CENTER_NAME    = EARTH
REF_FRAME      = TEME
TIME_SYSTEM    = UTC
MEAN_ELEMENT_THEORY = SGP/SGP4

EPOCH          = 2026-03-19T06:00:02.000160
MEAN_MOTION    = 15.81126991
ECCENTRICITY   = .00014253
INCLINATION    = 53.1590
RA_OF_ASC_NODE = 146.6719
ARG_OF_PERICENTER = 115.0501
MEAN_ANOMALY   = 22.6325

EPHEMERIS_TYPE = 0
CLASSIFICATION_TYPE = U
NORAD_CAT_ID   = 68090
ELEMENT_SET_NO = 999
REV_AT_EPOCH   = 357
BSTAR          = -.10447606E-1
MEAN_MOTION_DOT = -.1831871E-1
MEAN_MOTION_DDOT = 0

CCSDS_OMM_VERS = 2.0
CREATION_DATE  = 
ORIGINATOR     = 

OBJECT_NAME    = STARLINK-36324
OBJECT_ID      = 2026-042Y
CENTER_NAME    = EARTH
REF_FRAME      = TEME
TIME_SYSTEM    = UTC
MEAN_ELEMENT_THEORY = SGP/SGP4

EPOCH          = 2026-03-19T06:00:02.000160
MEAN_MOTION    = 15.76111103
ECCENTRICITY   = .00008665
INCLINATION    = 53.1592
RA_OF_ASC_NODE = 146.6976
ARG_OF_PERICENTER = 78.3659
MEAN_ANOMALY   = 46.3561

EPHEMERIS_TYPE = 0
CLASSIFICATION_TYPE = U
NORAD_CAT_ID   = 68091
ELEMENT_SET_NO = 999
REV_AT_EPOCH   = 357
BSTAR          = -.81815797E-2
MEAN_MOTION_DOT = -.1160785E-1
MEAN_MOTION_DDOT = 0

CCSDS_OMM_VERS = 2.0
CREATION_DATE  = 
ORIGINATOR     = 

OBJECT_NAME    = STARLINK-36896
OBJECT_ID      = 2026-042Z
CENTER_NAME    = EARTH
REF_FRAME      = TEME
TIME_SYSTEM    = UTC
MEAN_ELEMENT_THEORY = SGP/SGP4

EPOCH          = 2026-03-19T06:00:02.000160
MEAN_MOTION    = 15.80830838
ECCENTRICITY   = .0001431
INCLINATION    = 53.1590
RA_OF_ASC_NODE = 146.6626
ARG_OF_PERICENTER = 100.7705
MEAN_ANOMALY   = 41.1809

EPHEMERIS_TYPE = 0
CLASSIFICATION_TYPE = U
NORAD_CAT_ID   = 68092
ELEMENT_SET_NO = 999
REV_AT_EPOCH   = 358
BSTAR          = .25085952E-3
MEAN_MOTION_DOT = .48998E-3
MEAN_MOTION_DDOT = 0

CCSDS_OMM_VERS = 2.0
CREATION_DATE  = 
ORIGINATOR     = 

OBJECT_NAME    = STARLINK-36251
OBJECT_ID      = 2026-042AA
CENTER_NAME    = EARTH
REF_FRAME      = TEME
TIME_SYSTEM    = UTC
MEAN_ELEMENT_THEORY = SGP/SGP4

EPOCH          = 2026-03-19T06:00:02.000160
MEAN_MOTION    = 15.80854562
ECCENTRICITY   = .00011652
INCLINATION    = 53.1587
RA_OF_ASC_NODE = 146.6445
ARG_OF_PERICENTER = 87.9794
MEAN_ANOMALY   = 62.5336

EPHEMERIS_TYPE = 0
CLASSIFICATION_TYPE = U
NORAD_CAT_ID   = 68093
ELEMENT_SET_NO = 999
REV_AT_EPOCH   = 357
BSTAR          = .19848606E-3
MEAN_MOTION_DOT = .38618E-3
MEAN_MOTION_DDOT = 0

CCSDS_OMM_VERS = 2.0
CREATION_DATE  = 
ORIGINATOR     = 

OBJECT_NAME    = STARLINK-36787
OBJECT_ID      = 2026-042AB
CENTER_NAME    = EARTH
REF_FRAME      = TEME
TIME_SYSTEM    = UTC
MEAN_ELEMENT_THEORY = SGP/SGP4

EPOCH          = 2026-03-19T06:00:02.000160
MEAN_MOTION    = 15.76152630
ECCENTRICITY   = .00007154
INCLINATION    = 53.1592
RA_OF_ASC_NODE = 146.6436
ARG_OF_PERICENTER = 70.7127
MEAN_ANOMALY   = 79.7352

EPHEMERIS_TYPE = 0
CLASSIFICATION_TYPE = U
NORAD_CAT_ID   = 68094
ELEMENT_SET_NO = 999
REV_AT_EPOCH   = 357
BSTAR          = -.85413377E-2
MEAN_MOTION_DOT = -.1207916E-1
MEAN_MOTION_DDOT = 0

CCSDS_OMM_VERS = 2.0
CREATION_DATE  = 
ORIGINATOR     = 

OBJECT_NAME    = STARLINK-36790
OBJECT_ID      = 2026-042AC
CENTER_NAME    = EARTH
REF_FRAME      = TEME
TIME_SYSTEM    = UTC
MEAN_ELEMENT_THEORY = SGP/SGP4

EPOCH          = 2026-03-19T06:00:02.000160
MEAN_MOTION    = 15.80869039
ECCENTRICITY   = .0001147
INCLINATION    = 53.1587
RA_OF_ASC_NODE = 146.6536
ARG_OF_PERICENTER = 80.2226
MEAN_ANOMALY   = 66.0043

EPHEMERIS_TYPE = 0
CLASSIFICATION_TYPE = U
NORAD_CAT_ID   = 68095
ELEMENT_SET_NO = 999
REV_AT_EPOCH   = 357
BSTAR          = .15373944E-3
MEAN_MOTION_DOT = .29743E-3
MEAN_MOTION_DDOT = 0

CCSDS_OMM_VERS = 2.0
CREATION_DATE  = 
ORIGINATOR     = 

OBJECT_NAME    = STARLINK-36328
OBJECT_ID      = 2026-042AD
CENTER_NAME    = EARTH
REF_FRAME      = TEME
TIME_SYSTEM    = UTC
MEAN_ELEMENT_THEORY = SGP/SGP4

EPOCH          = 2026-03-19T06:00:02.000160
MEAN_MOTION    = 15.80858875
ECCENTRICITY   = .00013027
INCLINATION    = 53.1590
RA_OF_ASC_NODE = 146.6179
ARG_OF_PERICENTER = 87.8888
MEAN_ANOMALY   = 75.4344

EPHEMERIS_TYPE = 0
CLASSIFICATION_TYPE = U
NORAD_CAT_ID   = 68096
ELEMENT_SET_NO = 999
REV_AT_EPOCH   = 357
BSTAR          = .15831645E-3
MEAN_MOTION_DOT = .30638E-3
MEAN_MOTION_DDOT = 0

CCSDS_OMM_VERS = 2.0
CREATION_DATE  = 
ORIGINATOR     = 

OBJECT_NAME    = STARLINK-36853
OBJECT_ID      = 2026-042AE
CENTER_NAME    = EARTH
REF_FRAME      = TEME
TIME_SYSTEM    = UTC
MEAN_ELEMENT_THEORY = SGP/SGP4

EPOCH          = 2026-03-19T06:00:02.000160
MEAN_MOTION    = 15.80822773
ECCENTRICITY   = .0001492
INCLINATION    = 53.1590
RA_OF_ASC_NODE = 146.6357
ARG_OF_PERICENTER = 112.9378
MEAN_ANOMALY   = 41.8419

EPHEMERIS_TYPE = 0
CLASSIFICATION_TYPE = U
NORAD_CAT_ID   = 68097
ELEMENT_SET_NO = 999
REV_AT_EPOCH   = 358
BSTAR          = .51457491E-3
MEAN_MOTION_DOT = .10183E-2
MEAN_MOTION_DDOT = 0

CCSDS_OMM_VERS = 2.0
CREATION_DATE  = 
ORIGINATOR     = 

OBJECT_NAME    = GLOBAL-34
OBJECT_ID      = 2026-043A
CENTER_NAME    = EARTH
REF_FRAME      = TEME
TIME_SYSTEM    = UTC
MEAN_ELEMENT_THEORY = SGP/SGP4

EPOCH          = 2026-03-18T22:19:55.821216
MEAN_MOTION    = 15.31604838
ECCENTRICITY   = .00056905
INCLINATION    = 42.0218
RA_OF_ASC_NODE = 22.1556
ARG_OF_PERICENTER = 345.5564
MEAN_ANOMALY   = 14.5110

EPHEMERIS_TYPE = 0
CLASSIFICATION_TYPE = U
NORAD_CAT_ID   = 68098
ELEMENT_SET_NO = 999
REV_AT_EPOCH   = 198
BSTAR          = .31504719E-3
MEAN_MOTION_DOT = .9586E-4
MEAN_MOTION_DDOT = 0

CCSDS_OMM_VERS = 2.0
CREATION_DATE  = 
ORIGINATOR     = 

OBJECT_NAME    = STARLINK-37022
OBJECT_ID      = 2026-044A
CENTER_NAME    = EARTH
REF_FRAME      = TEME
TIME_SYSTEM    = UTC
MEAN_ELEMENT_THEORY = SGP/SGP4

EPOCH          = 2026-03-19T06:00:02.000160
MEAN_MOTION    = 15.83294917
ECCENTRICITY   = .00016009
INCLINATION    = 97.2844
RA_OF_ASC_NODE = 38.8396
ARG_OF_PERICENTER = 125.5968
MEAN_ANOMALY   = 232.2196

EPHEMERIS_TYPE = 0
CLASSIFICATION_TYPE = U
NORAD_CAT_ID   = 68101
ELEMENT_SET_NO = 999
REV_AT_EPOCH   = 293
BSTAR          = -.9645781E-2
MEAN_MOTION_DOT = -.1785699E-1
MEAN_MOTION_DDOT = 0

CCSDS_OMM_VERS = 2.0
CREATION_DATE  = 
ORIGINATOR     = 

OBJECT_NAME    = STARLINK-37046
OBJECT_ID      = 2026-044B
CENTER_NAME    = EARTH
REF_FRAME      = TEME
TIME_SYSTEM    = UTC
MEAN_ELEMENT_THEORY = SGP/SGP4

EPOCH          = 2026-03-19T06:00:02.000160
MEAN_MOTION    = 15.83541860
ECCENTRICITY   = .00011298
INCLINATION    = 97.2842
RA_OF_ASC_NODE = 38.8406
ARG_OF_PERICENTER = 108.2598
MEAN_ANOMALY   = 253.3781

EPHEMERIS_TYPE = 0
CLASSIFICATION_TYPE = U
NORAD_CAT_ID   = 68102
ELEMENT_SET_NO = 999
REV_AT_EPOCH   = 293
BSTAR          = -.10164549E-1
MEAN_MOTION_DOT = -.1929325E-1
MEAN_MOTION_DDOT = 0

CCSDS_OMM_VERS = 2.0
CREATION_DATE  = 
ORIGINATOR     = 

OBJECT_NAME    = STARLINK-37018
OBJECT_ID      = 2026-044C
CENTER_NAME    = EARTH
REF_FRAME      = TEME
TIME_SYSTEM    = UTC
MEAN_ELEMENT_THEORY = SGP/SGP4

EPOCH          = 2026-03-19T06:00:02.000160
MEAN_MOTION    = 15.83617855
ECCENTRICITY   = .00013387
INCLINATION    = 97.2839
RA_OF_ASC_NODE = 38.8422
ARG_OF_PERICENTER = 101.5857
MEAN_ANOMALY   = 264.1644

EPHEMERIS_TYPE = 0
CLASSIFICATION_TYPE = U
NORAD_CAT_ID   = 68103
ELEMENT_SET_NO = 999
REV_AT_EPOCH   = 288
BSTAR          = -.10166384E-1
MEAN_MOTION_DOT = -.1935925E-1
MEAN_MOTION_DDOT = 0

